#aV2008  2 18  0  0   .00000000      96 DD+AD WGS84 FIT  NGA
## 1467  86400.00000000   900.00000000 54514  .0000000000000
+   31     1  2  3  4  5  6  8  9 10 11 12 13 14 15 16 17 18
+         19 20 21 22 23 24 25 26 27 28 29 30 31 32  0  0  0
+          0  0  0  0  0  0  0  0  0  0  0  0  0  0  0  0  0
+          0  0  0  0  0  0  0  0  0  0  0  0  0  0  0  0  0
+          0  0  0  0  0  0  0  0  0  0  0  0  0  0  0  0  0
++         0  0  0  0  0  0  0  0  0  0  0  0  0  0  0  0  0
++         0  0  0  0  0  0  0  0  0  0  0  0  0  0  0  0  0
++         0  0  0  0  0  0  0  0  0  0  0  0  0  0  0  0  0
++         0  0  0  0  0  0  0  0  0  0  0  0  0  0  0  0  0
++         0  0  0  0  0  0  0  0  0  0  0  0  0  0  0  0  0
%c cc cc ccc ccc cccc cccc cccc cccc ccccc ccccc ccccc ccccc
%c cc cc ccc ccc cccc cccc cccc cccc ccccc ccccc ccccc ccccc
%f  0.0000000  0.000000000  0.00000000000  0.000000000000000
%f  0.0000000  0.000000000  0.00000000000  0.000000000000000
%i    0    0    0    0      0      0      0      0         0
%i    0    0    0    0      0      0      0      0         0
/*      NGA, ST. LOUIS,MO.                                  
/*   EPHEMERIS COMPUTED FROM  3 DAYS OF DATA                
/* CCCCCCCCCCCCCCCCCCCCCCCCCCCCCCCCCCCCCCCCCCCCCCCCCCCCCCCCC
/* CCCCCCCCCCCCCCCCCCCCCCCCCCCCCCCCCCCCCCCCCCCCCCCCCCCCCCCCC
*  2008  2 18  2 15   .00000000                                                 
P  1  -1701.795636 -14608.658163  22338.200651    186.449495                    
V  1  27740.180425   -240.277282   1907.524965       .025406                    
P  2  12186.318821  23409.891069   4113.199912    175.247297                    
V  2  -5543.089141  -2786.127906  30583.775009       .030637                    
P  3 -13496.990360 -12582.318365 -19463.907495    188.729317                    
V  3  23654.109922  -5358.946853 -12757.378603       .052712                    
P  4   1963.975388  22084.138633  14256.192634    -10.790653                    
V  4 -12374.651268 -13977.022502  23564.257817      -.066444                    
P  5  17245.764224  -6686.731695  18746.466268    692.860214                    
V  5  -7256.779132  23432.254218  14968.372992       .142161                    
P  6  18916.155548 -12282.595752 -13916.479874     26.775166                    
V  6  18182.957285    949.256293  23542.761486       .178249                    
P  8  -5543.669159  16678.063716 -19847.317702   -141.440460                    
V  8 -13779.648662 -21019.758550 -14325.711370      -.015353                    
P  9  19521.843285  11067.932123  13721.842085    111.048096                    
V  9   9062.980308  16132.924529 -24633.162987       .019054                    
P 10   6186.976312  17035.411087 -19426.083721   -248.257068                    
V 10 -12688.892042  20991.682684  14790.767854      -.073853                    
P 11 -21704.838961  -5894.157594  14214.985272     27.007449                    
V 11 -10347.363501 -15600.016258 -21709.622147      -.000372                    
P 12  16479.223833   -491.306814  20900.825003   -356.705619                    
V 12 -11033.582720  23926.167941   9381.227987      -.007078                    
P 13 -23799.564103   6745.324268  -9737.205289    240.754887                    
V 13 -12202.820727  -1314.922942  29263.766835       .021618                    
P 14  10124.965984 -13772.238540  20403.816059   -296.440102                    
V 14  25644.480887   -108.437431 -12949.233207       .038872                    
P 15  21942.050134   7510.631898 -12915.963500    -77.654317                    
V 15 -16238.468591   3544.356369 -25471.626034      -.029207                    
P 16  -2450.722953 -20353.119616 -16709.283827    132.791550                    
V 16  11527.232878 -18151.620711  20508.306888      -.001190                    
P 17 -10548.033548  14344.858986  19685.006983     42.383431                    
V 17 -25024.683749     -8.878494 -13570.414588      -.005520                    
P 18  17467.828406 -16919.930837 -10080.914801   -203.507462                    
V 18  -3579.955732  13067.737542 -28016.568324       .030831                    
P 19 -21974.785782  -8716.117579 -12189.079733     21.177853                    
V 19  15569.072643  -2225.242106 -26130.350707       .014382                    
P 20 -17303.393109   3380.019301  19736.528395    120.352661                    
V 20   9760.097945 -23449.115629  12549.084034      -.007446                    
P 21  12739.353647  -9129.619568 -21262.776350     71.454548                    
V 21  14919.228362  23101.654126  -1569.280072      -.007843                    
P 22  10928.052584 -24025.226068   2924.442032    208.612736                    
V 22   4559.556414  -1517.486776 -31181.748771       .005238                    
P 23 -26336.216285  -1221.840808   4065.997169    334.873300                    
V 23   5062.944097  -2556.657579  31286.167285       .028067                    
P 24  17957.892272   4047.880827 -18869.323007     71.388659                    
V 24  10997.272951  21894.232584  15308.461956       .029703                    
P 25 -16696.688896   1672.891502 -20173.224063    513.771026                    
V 25 -15787.453279 -21304.485180  11268.039732       .058535                    
P 26  19546.587787   9945.477286 -15837.646377    186.108058                    
V 26 -18963.291068   1132.017605 -22850.380162       .099566                    
P 27 -12106.295233   8443.426839 -21412.890156    168.564546                    
V 27 -17340.551077 -22983.937214    558.441145       .025365                    
P 28 -12035.892016  23462.182987    546.110976    -15.287527                    
V 28  -2797.857032  -1196.839239 -32034.554960      -.006435                    
P 29  25430.220697  -5025.552256  -5611.172896    -58.842153                    
V 29   7392.095294   2479.353781  30674.259705       .054194                    
P 30  17486.991233 -13032.867758  14757.361115     64.262593                    
V 30  -5688.655371  18709.179374  22854.152670       .015757                    
P 31  -4221.548916 -22730.810254  13197.988299     -9.599513                    
V 31  10905.922501  12488.859598  25496.945983      -.014401                    
P 32   4380.208171 -23443.704549  12324.080576    230.814654                    
V 32   9288.847456 -11759.861920 -26457.449197       .091103                    
EOF
